[
  {"name_ar": "مصر", "name_en": "Egypt", "iso2": "EG", "dial_code": "20"},
  {"name_ar": "الجزائر", "name_en": "Algeria", "iso2": "DZ", "dial_code": "213"},
  {"name_ar": "المغرب", "name_en": "Morocco", "iso2": "MA", "dial_code": "212"},
  {"name_ar": "تونس", "name_en": "Tunisia", "iso2": "TN", "dial_code": "216"},
  {"name_ar": "ليبيا", "name_en": "Libya", "iso2": "LY", "dial_code": "218"},
  {"name_ar": "السودان", "name_en": "Sudan", "iso2": "SD", "dial_code": "249"},
  {"name_ar": "العراق", "name_en": "Iraq", "iso2": "IQ", "dial_code": "964"},
  {"name_ar": "الأردن", "name_en": "Jordan", "iso2": "JO", "dial_code": "962"},
  {"name_ar": "لبنان", "name_en": "Lebanon", "iso2": "LB", "dial_code": "961"},
  {"name_ar": "سوريا", "name_en": "Syria", "iso2": "SY", "dial_code": "963"},
  {"name_ar": "فلسطين", "name_en": "Palestine", "iso2": "PS", "dial_code": "970"},
  {"name_ar": "السعودية", "name_en": "Saudi Arabia", "iso2": "SA", "dial_code": "966"},
  {"name_ar": "الإمارات", "name_en": "United Arab Emirates", "iso2": "AE", "dial_code": "971"},
  {"name_ar": "قطر", "name_en": "Qatar", "iso2": "QA", "dial_code": "974"},
  {"name_ar": "الكويت", "name_en": "Kuwait", "iso2": "KW", "dial_code": "965"},
  {"name_ar": "البحرين", "name_en": "Bahrain", "iso2": "BH", "dial_code": "973"},
  {"name_ar": "عمان", "name_en": "Oman", "iso2": "OM", "dial_code": "968"},
  {"name_ar": "اليمن", "name_en": "Yemen", "iso2": "YE", "dial_code": "967"},
  {"name_ar": "تركيا", "name_en": "Turkey", "iso2": "TR", "dial_code": "90"},
  {"name_ar": "إيران", "name_en": "Iran", "iso2": "IR", "dial_code": "98"},
  {"name_ar": "باكستان", "name_en": "Pakistan", "iso2": "PK", "dial_code": "92"},
  {"name_ar": "الهند", "name_en": "India", "iso2": "IN", "dial_code": "91"},
  {"name_ar": "أفغانستان", "name_en": "Afghanistan", "iso2": "AF", "dial_code": "93"},
  {"name_ar": "طاجيكستان", "name_en": "Tajikistan", "iso2": "TJ", "dial_code": "992"},
  {"name_ar": "أوزبكستان", "name_en": "Uzbekistan", "iso2": "UZ", "dial_code": "998"},
  {"name_ar": "قرغيزستان", "name_en": "Kyrgyzstan", "iso2": "KG", "dial_code": "996"},
  {"name_ar": "كازاخستان", "name_en": "Kazakhstan", "iso2": "KZ", "dial_code": "7"},
  {"name_ar": "روسيا", "name_en": "Russia", "iso2": "RU", "dial_code": "7"},
  {"name_ar": "إندونيسيا", "name_en": "Indonesia", "iso2": "ID", "dial_code": "62"},
  {"name_ar": "ماليزيا", "name_en": "Malaysia", "iso2": "MY", "dial_code": "60"},
  {"name_ar": "تايلاند", "name_en": "Thailand", "iso2": "TH", "dial_code": "66"},
  {"name_ar": "فيتنام", "name_en": "Vietnam", "iso2": "VN", "dial_code": "84"},
  {"name_ar": "الفلبين", "name_en": "Philippines", "iso2": "PH", "dial_code": "63"},
  {"name_ar": "الصين", "name_en": "China", "iso2": "CN", "dial_code": "86"},
  {"name_ar": "اليابان", "name_en": "Japan", "iso2": "JP", "dial_code": "81"},
  {"name_ar": "كوريا الجنوبية", "name_en": "South Korea", "iso2": "KR", "dial_code": "82"},
  {"name_ar": "ألمانيا", "name_en": "Germany", "iso2": "DE", "dial_code": "49"},
  {"name_ar": "فرنسا", "name_en": "France", "iso2": "FR", "dial_code": "33"},
  {"name_ar": "إيطاليا", "name_en": "Italy", "iso2": "IT", "dial_code": "39"},
  {"name_ar": "إسبانيا", "name_en": "Spain", "iso2": "ES", "dial_code": "34"},
  {"name_ar": "المملكة المتحدة", "name_en": "United Kingdom", "iso2": "GB", "dial_code": "44"},
  {"name_ar": "هولندا", "name_en": "Netherlands", "iso2": "NL", "dial_code": "31"},
  {"name_ar": "بلجيكا", "name_en": "Belgium", "iso2": "BE", "dial_code": "32"},
  {"name_ar": "الولايات المتحدة", "name_en": "United States", "iso2": "US", "dial_code": "1"},
  {"name_ar": "كندا", "name_en": "Canada", "iso2": "CA", "dial_code": "1"},
  {"name_ar": "المكسيك", "name_en": "Mexico", "iso2": "MX", "dial_code": "52"},
  {"name_ar": "البرازيل", "name_en": "Brazil", "iso2": "BR", "dial_code": "55"},
  {"name_ar": "الأرجنتين", "name_en": "Argentina", "iso2": "AR", "dial_code": "54"},
  {"name_ar": "بيرو", "name_en": "Peru", "iso2": "PE", "dial_code": "51"},
  {"name_ar": "كولومبيا", "name_en": "Colombia", "iso2": "CO", "dial_code": "57"},
  {"name_ar": "تشيلي", "name_en": "Chile", "iso2": "CL", "dial_code": "56"},
  {"name_ar": "نيجيريا", "name_en": "Nigeria", "iso2": "NG", "dial_code": "234"},
  {"name_ar": "كينيا", "name_en": "Kenya", "iso2": "KE", "dial_code": "254"},
  {"name_ar": "إثيوبيا", "name_en": "Ethiopia", "iso2": "ET", "dial_code": "251"},
  {"name_ar": "جنوب أفريقيا", "name_en": "South Africa", "iso2": "ZA", "dial_code": "27"},
  {"name_ar": "مدغشقر", "name_en": "Madagascar", "iso2": "MG", "dial_code": "261"},
  {"name_ar": "توغو", "name_en": "Togo", "iso2": "TG", "dial_code": "228"},
  {"name_ar": "بنين", "name_en": "Benin", "iso2": "BJ", "dial_code": "229"},
  {"name_ar": "السنغال", "name_en": "Senegal", "iso2": "SN", "dial_code": "221"},
  {"name_ar": "ساحل العاج", "name_en": "Ivory Coast", "iso2": "CI", "dial_code": "225"},
  {"name_ar": "نيكاراغوا", "name_en": "Nicaragua", "iso2": "NI", "dial_code": "505"},
  {"name_ar": "أستراليا", "name_en": "Australia", "iso2": "AU", "dial_code": "61"},
  {"name_ar": "نيوزيلندا", "name_en": "New Zealand", "iso2": "NZ", "dial_code": "64"}
]
